ONEWEB-0196             
1 48218U 21031J   26025.26784745  .00000270  00000+0  69432-3 0  9993
2 48218  87.9027 318.1946 0001686  83.4599 276.6723 13.14502249229455
ONEWEB-0183             
1 48219U 21031K   26025.31859054 -.00000033  00000+0 -12411-3 0  9990
2 48219  87.9019 318.1856 0001938  78.8521 281.2827 13.14503237229556
ONEWEB-0185             
1 48220U 21031L   26025.26864514  .00000273  00000+0  70170-3 0  9993
2 48220  87.9032 318.1785 0002046  86.6678 273.4686 13.14502240229475
ONEWEB-0187             
1 48221U 21031M   26025.09645145  .00000235  00000+0  59939-3 0  9990
2 48221  87.9021 318.2489 0001784  86.9159 273.2175 13.14503965229466
ONEWEB-0192             
1 48222U 21031N   26025.21868257 -.00000220  00000+0 -62782-3 0  9992
2 48222  87.9021 318.2138 0001612  79.2699 280.8612 13.14504432229394
ONEWEB-0219             
1 48223U 21031P   26025.27419252 -.00000007  00000+0 -54460-4 0  9994
2 48223  87.9031 318.1844 0001845  85.3718 274.7622 13.14502931229606
ONEWEB-0202             
1 48224U 21031Q   26025.25515581  .00000002  00000+0 -30268-4 0  9999
2 48224  87.9023 318.1982 0001184  98.8117 261.3147 13.14502546229582
ONEWEB-0204             
1 48225U 21031R   26025.28925087 -.00000119  00000+0 -35596-3 0  9997
2 48225  87.9032 318.1835 0002067  78.7300 281.4062 13.14502685229484
